USA 164 (MILSTAR-2 3)   
1 27168U 02001A   21178.32459550  .00000086  00000-0  00000-0 0  9993
2 27168   9.1427  30.4387 0002303  68.3952 312.6165  1.00269269 14751
ECHOSTAR 7              
1 27378U 02006A   21178.51436616 -.00000010  00000-0  00000-0 0  9998
2 27378   0.0123 322.8602 0001822 104.4353 274.8875  1.00271032 32395
INTELSAT 904 (IS-904)   
1 27380U 02007A   21178.45853991 -.00000225  00000-0  00000-0 0  9992
2 27380   2.3618  89.6445 0003522   7.1594 314.5402  1.00272344 33554
TDRS 9                  
1 27389U 02011A   21178.43410988 -.00000301  00000-0  00000-0 0  9994
2 27389   8.2707  64.0358 0022930 295.5433  10.0821  1.00265392 72232
ASTRA 3A                
1 27400U 02015B   21178.23167941 -.00000217  00000-0  00000-0 0  9994
2 27400   6.6686  61.4038 0001731  38.2955 172.4732  1.00270908 70519
NSS-7                   
1 27414U 02019A   21178.46037188 -.00000171  00000-0  00000-0 0  9996
2 27414   5.0814  74.0985 0002330  20.2806 327.1242  1.00271638 70351
DIRECTV 5 (TEMPO 1)     
1 27426U 02023A   21178.52158108 -.00000066  00000-0  00000-0 0  9990
2 27426   0.2448  97.4290 0003603   3.8152 252.2368  1.00271649 69916
INTELSAT 905 (IS-905)   
1 27438U 02027A   21178.45949951 -.00000196  00000-0  00000-0 0  9997
2 27438   2.1833  90.4459 0002997   3.3934 322.8547  1.00270778 33158
GALAXY 3C (G-3C)        
1 27445U 02030A   21177.34770280 -.00000159  00000-0  00000+0 0  9991
2 27445   0.0149 329.3122 0001448  12.4695 323.0083  1.00268955 69734
EUTELSAT 5 WEST A       
1 27460U 02035A   21178.36646590 -.00000054  00000-0  00000-0 0  9997
2 27460   1.4547  93.2127 0005628 357.6942 311.7027  1.00270965 69403
METEOSAT-8 (MSG-1)      
1 27509U 02040B   21178.24077191  .00000122  00000-0  00000-0 0  9994
2 27509   7.3904  52.4455 0002049  18.1483 332.9923  1.00273007 69043
INTELSAT 906 (IS-906)   
1 27513U 02041A   21178.47720840  .00000003  00000-0  00000-0 0  9999
2 27513   1.1906  94.6599 0003055   3.1719  53.9083  1.00272061 68824
HISPASAT 30W-4          
1 27528U 02044A   21178.49335503  .00000106  00000-0  00000-0 0  9992
2 27528   1.9722  90.5336 0006103   6.4807 213.3665  1.00272605 24766
TDRS 10                 
1 27566U 02055A   21178.46666035  .00000077  00000-0  00000-0 0  9997
2 27566   7.5636  51.8471 0009696 337.6480 243.3239  1.00278988 68027
NSS-6                   
1 27603U 02057A   21178.57780484  .00000097  00000-0  00000-0 0  9990
2 27603   0.7278  95.7083 0004634   3.4060 215.2426  1.00272507 67836
NIMIQ 2                 
1 27632U 02062A   21178.12329833 -.00000240  00000-0  00000-0 0  9997
2 27632   5.1939  73.1935 0013914  15.9393 320.1794  1.00269338 25976
USA 167                 
1 27691U 03008A   21178.57155390  .00000041  00000-0  00000-0 0  9995
2 27691   7.3564  56.7881 0004402  21.9491 272.7150  1.00270257 14747
USA 169 (MILSTAR-2 4)   
1 27711U 03012A   21178.43660519 -.00000209  00000-0  00000-0 0  9999
2 27711   9.6012  42.4836 0002744  56.0919 126.4979  1.00272468 14746
GALAXY 12 (G-12)        
1 27715U 03013B   21178.51043420  .00000046  00000-0  00000-0 0  9997
2 27715   2.3970  89.1496 0002225  16.7784 224.6454  1.00273242 33886
ASIASAT 4               
1 27718U 03014A   21178.34424618  .00000143  00000-0  00000-0 0  9992
2 27718   0.0925 103.3483 0001466 348.7543 345.6966  1.00268808 27085
HELLAS-SAT 2            
1 27811U 03020A   21178.44536727 -.00000162  00000-0  00000-0 0  9991
2 27811   2.8144  88.3406 0004699   6.5256 246.0154  1.00271719 24636
THURAYA-2               
1 27825U 03026A   21178.25776295  .00000115  00000-0  00000-0 0  9994
2 27825   6.3135  33.9006 0004513  58.9723 319.5014  1.00272983 66144
OPTUS C1                
1 27831U 03028B   21178.58730993 -.00000162  00000-0  00000-0 0  9997
2 27831   2.3246  90.3241 0006354   8.5723 184.0839  1.00273395 34855
GALAXY 23 (G-23)        
1 27854U 03034A   21178.51314619  .00000003  00000-0  00000-0 0  9998
2 27854   0.0244  70.0044 0003162  42.3772 227.1732  1.00271734 65538
USA 170                 
1 27875U 03040A   21178.45601007 -.00000286  00000-0  00000-0 0  9995
2 27875   6.6468  62.2113 0004631  56.1271 279.3319  1.00270575 14750
GALAXY 13 (HORIZONS 1)  
1 27954U 03044A   21178.51087038  .00000039  00000-0  00000-0 0  9991
2 27954   0.0374 312.5814 0002974 233.1063 147.0195  1.00264862 28362
YAMAL 202               
1 28089U 03053A   21178.56874309 -.00000091  00000-0  00000-0 0  9990
2 28089   1.7560  91.7295 0007756   5.2071 187.1787  1.00271064 64472
UFO 11 (USA 174)        
1 28117U 03057A   21178.10286053 -.00000108  00000-0  00000-0 0  9998
2 28117   6.5099  37.8456 0006079  33.6276 315.7273  1.00271199 64235
USA 176 (DSP 22)        
1 28158U 04004A   21178.09505201 -.00000233  00000-0  00000-0 0  9992
2 28158   9.6364  37.2133 0001514  92.9304 266.8685  1.00270979 14710
ABS-4 (MOBISAT-1)       
1 28184U 04007A   21178.47651052  .00000030  00000-0  00000-0 0  9996
2 28184   1.4399  92.9969 0005666   5.6982  49.5841  1.00271446 34135
EUTELSAT 7A             
1 28187U 04008A   21178.51884043  .00000094  00000-0  00000-0 0  9993
2 28187   1.2325  90.8624 0004937  12.1122 220.4334  1.00273721 63147
AMC-11 (GE-11)          
1 28252U 04017A   21178.51008525  .00000060  00000-0  00000-0 0  9992
2 28252   0.0138 352.2456 0002529 108.5750 227.6292  1.00262352 62676
INTELSAT 10-02          
1 28358U 04022A   21178.41993847 -.00000021  00000-0  00000-0 0  9992
2 28358   0.0204  19.2158 0001228  92.8998 313.8231  1.00271246 62336
ANIK F2                 
1 28378U 04027A   21178.52165309 -.00000060  00000-0  00000-0 0  9998
2 28378   0.0141 322.4635 0000399 152.3595 237.7345  1.00271437 23058
AMC-15                  
1 28446U 04041A   21178.56539432 -.00000099  00000-0  00000-0 0  9998
2 28446   0.0168  20.3624 0003088  80.7069 273.2877  1.00271504 61112
AMC-16                  
1 28472U 04048A   21178.51924502 -.00000216  00000-0  00000-0 0  9996
2 28472   0.0123 356.5369 0001360 108.6462 272.5756  1.00268347 60488
NSS-10 (AMC-12)         
1 28526U 05003A   21178.38512037 -.00000262  00000-0  00000-0 0  9990
2 28526   1.9154  91.0283 0003216   6.8911 278.9689  1.00270580 34947
XTAR-EUR                
1 28542U 05005A   21178.15426668  .00000141  00000-0  00000+0 0  9993
2 28542   0.0268  77.7100 0002741  19.6338 262.6723  1.00270445 59976
XM-3 (RHYTHM)           
1 28626U 05008A   21178.51915779 -.00000215  00000-0  00000-0 0  9999
2 28626   0.0190  41.5180 0002641  54.3951 281.6473  1.00270461 24418
INMARSAT 4-F1           
1 28628U 05009A   21178.49298700 -.00000273  00000-0  00000-0 0  9991
2 28628   3.3735  31.2026 0003166  71.8991 133.6704  1.00271746 59460
DIRECTV 8               
1 28659U 05019A   21178.51436679 -.00000009  00000-0  00000-0 0  9995
2 28659   0.0215  43.3663 0003215  58.0933 240.4989  1.00269796 58867
GALAXY 28 (G-28)        
1 28702U 05022A   21178.57103015 -.00000195  00000-0  00000-0 0  9995
2 28702   0.0398  66.6305 0002727 311.3992  14.4596  1.00268584 33776
EXPRESS-AM3             
1 28707U 05023A   21176.95952247  .00000125  00000-0  00000-0 0  9992
2 28707   2.6998  87.0852 0000418  73.6917 121.9523  1.00274861 58618
THAICOM 4               
1 28786U 05028A   21178.48818904 -.00000373  00000-0  00000-0 0  9991
2 28786   0.0229  36.1262 0002576  63.7446 111.2071  1.00270722 34052
GALAXY 14 (G-14)        
1 28790U 05030A   21178.31918688 -.00000036  00000-0  00000-0 0  9997
2 28790   0.3798  95.0782 0002784 351.2380 295.9364  1.00505249 58095
ANIK F1R                
1 28868U 05036A   21178.52409175 -.00000084  00000-0  00000-0 0  9991
2 28868   0.0235  51.2982 0003142  19.8896 286.0136  1.00271191 28246
GALAXY 15 (G-15)        
1 28884U 05041A   21178.50964907  .00000069  00000-0  00000-0 0  9994
2 28884   0.0362 312.4909 0001791 130.2316 243.5366  1.00266379 57404
SYRACUSE 3A             
1 28885U 05041B   21178.47371896  .00000118  00000-0  00000-0 0  9995
2 28885   0.2430  98.0370 0003399 353.8259  41.4705  1.00269684 57546
INMARSAT 4-F2           
1 28899U 05044A   21178.47712116 -.00000001  00000-0  00000-0 0  9999
2 28899   3.2471  33.8738 0003102  74.0358  43.5446  1.00272161 57312
TELKOM 2                
1 28902U 05046A   21155.58660737 -.00000212  00000-0  00000-0 0  9998
2 28902   0.0407 114.2656 0000954 305.9422 197.7959  1.00055304 56996
SPACEWAY 2              
1 28903U 05046B   21178.51884043  .00000093  00000-0  00000-0 0  9991
2 28903   1.0750  91.8013 0001122 352.5133 239.3886  1.00271247 33130
METEOSAT-9 (MSG-2)      
1 28912U 05049B   21178.29408890  .00000004  00000-0  00000-0 0  9993
2 28912   5.2330  68.4018 0001313  14.3367 302.2767  1.00265851 56866
EUTELSAT 174A           
1 28924U 05052A   21178.56217830 -.00000001  00000-0  00000-0 0  9990
2 28924   0.0448  13.2676 0006646  85.5550 193.4223  1.00271024 34129
ECHOSTAR 10             
1 28935U 06003A   21178.52165360 -.00000066  00000-0  00000-0 0  9996
2 28935   0.0365 129.3329 0002061 299.1597 284.9543  1.00271105 56264
SPAINSAT                
1 28945U 06007A   21178.31765671 -.00000226  00000-0  00000-0 0  9997
2 28945   0.0464 228.1234 0003302 255.6205 236.2723  1.00272120 56000
EUTELSAT HOTBIRD 13E    
1 28946U 06007B   21178.32337420  .00000077  00000-0  00000-0 0  9999
2 28946   0.0678 138.6821 0005907 346.6961 279.6761  1.00273487 56097
JCSAT-5A                
1 29045U 06010A   21178.49071888 -.00000338  00000-0  00000-0 0  9996
2 29045   0.0191   2.8236 0002184  95.0444 126.6558  1.00273214 55558
ASTRA 1KR               
1 29055U 06012A   21173.88167824  .00000122  00000-0  00000-0 0  9993
2 29055   0.0684 274.8987 0001661 217.1688 115.9465  1.00264693 55498
EWS-G1 (GOES 13)        
1 29155U 06018A   21178.47659774  .00000029  00000-0  00000-0 0  9996
2 29155   0.0962 251.1343 0004396 290.3742 327.1437  1.00268447 25173
